Type,Business,DBA,License,Street,City,Zipcode,Website,Location
Medical Marijuana Only,BLUEPOINT WELLNESS OF WESTPORT LLC,BLUEPOINT WELLNESS OF WESTPORT LLC,MMDF.0000029,1460 POST RD E,WESTPORT,06880-5500,https://www.bluepointwellnessct.com/order/westport/,POINT (-73.31338 41.13852)
Adult-Use Cannabis Only,DEBBIE'S DISPENSARY LLC,CRISP CANNABIS,ACRE.0009619,500 Main St,East Hartford,06118,,POINT (-72.64309 41.75751)
Adult-Use Cannabis Only,DIVINE 1 LLC,REJOICE,ACRE.0008896,39 NEW HAVEN RD STE 2,SEYMOUR,06483-3460,,POINT (-73.06223 41.39719)
Adult-Use Cannabis Only,Jananii LLC,Jananii LLC,ACRE.0008858,3490 Whitney Ave #108,Hamden,06518,,POINT (-72.90604 41.42158)
Adult-Use Cannabis Only,SARA'S DISPENSARY LLC,CRISP CANNABIS,ACRE.0005925,33 Berlin Road,Cromwell,06416,,POINT (-72.68258 41.60196)
Hybrid Retailer,FFD WEST LLC,FINE FETTLE DISPENSARY - STAMFORD,AMHF.0008247,12 RESEARCH DR,STAMFORD,06906-1419,https://www.finefettle.com/,POINT (-73.52019 41.07777)
Hybrid Retailer,DIVINE 1 LLC,REJOICE,AMHF.0003139,834 Broad Street,Meriden,06450,,POINT (-72.7864 41.54163)
Hybrid Retailer,DIVINE 1 LLC,REJOICE,AMHF.0003319,425 W Main Street,Norwich,06360,,POINT (-72.09378 41.51987)
Hybrid Retailer,EJ VENTURES 2 LLC,AFFINITY DISPENSARY,AMHF.0008235,2000 COMMERCE DR,BRIDGEPORT,06605,,POINT (-73.21962 41.16796)
Hybrid Retailer,TY'S DISPENSARY LLC,TY'S DISPENSARY LLC,AMHF.0004449,1234 Huntington Tpke,Bridgeport,06610,,POINT (-73.16679 41.22464)
Hybrid Retailer,Budr Holding 6 LLC,Budr Holding 6 LLC,AMHF.0008281,7365 Main Street Unit 17,Stratford,06614,,POINT (-73.10158 41.25372)
Hybrid Retailer,STAMFORD DISPENSARY LLC,SWEETSPOT DISPENSARY,AMHF.0008284,111 High Ridge Road,Stamford,06905,,POINT (-73.54913 41.076)
Hybrid Retailer,NOVA RETAIL CT LLC,NOVA FARMS CANNABIS DISPENSARY,AMHF.0008286,623 Hartford Road,New Britian,06053,,POINT (-72.76284 41.7147)
Hybrid Retailer,CT Nightjar 1,CT Nightjar 1,AMHF.0008285,15 Colton Road,East Lyme,06333,,POINT (-72.25315 41.32201)
Hybrid Retailer,"CONNECTICUT RETAIL SOLUTIONS II, LLC",AYR CANNABIS,AMHF.0008275,185 Spencer Street,Manchester,06040,,POINT (-72.56875 41.76731)
Hybrid Retailer,"FFD PINK EJV, LLC","FFD PINK EJV, LLC",AMHF.0008273,1212 Farmington Ave,Bristol,06010,,POINT (-72.90387 41.69742)
Hybrid Retailer,CHILLAX LLC,THE LIV,AMHF.0002942,2661 Berlin Turnpike,Newington,06111,,POINT (-72.71405 41.67801)
Hybrid Retailer,CURALEAF STAMFORD INC,CURALEAF STAMFORD INC,AMHF.0008256,814 E MAIN ST,STAMFORD,06902-3832,https://ct.curaleaf.com/shop/curaleaf-ct-stamford,POINT (-73.52787 41.05568)
Hybrid Retailer,CURALEAF GROTON LLC,CURALEAF GROTON LLC,AMHF.0008270,79 GOLD STAR HWY,GROTON,06340-3429,https://ct.curaleaf.com/shop/curaleaf-ct-groton,POINT (-72.06632 41.36664)
Hybrid Retailer,C-3 VENTURES LLC,STILL RIVER WELLNESS,AMHF.0008264,3568 WINSTED RD,TORRINGTON,06790-2213,https://stillriverwellness.com/pre-order/,POINT (-73.0761 41.88085)
Hybrid Retailer,CURALEAF MILFORD INC,CURALEAF MILFORD INC,AMHF.0008272,240 BUCKLAND ST,MANCHESTER,06042-1604,https://ct.curaleaf.com/shop/curaleaf-ct-milford,POINT (-72.55426 41.80383)
Hybrid Retailer,SOUTHERN CT WELLNESS AND HEALING LLC,SOUTHERN CT WELLNESS AND HEALING LLC,AMHF.0008277,175 BOSTON POST RD,ORANGE,06477-3205,https://www.soctwellness.com/,POINT (-72.99493 41.27271)
Hybrid Retailer,CARING NATURE LLC,ZEN LEAF NAUGATUCK,AMHF.0008287,237 E AURORA ST STE 6,WATERBURY,06708-2044,https://zenleafdispensaries.com/locations/waterbury/,POINT (-73.05754 41.57033)
Hybrid Retailer,CARING NATURE LLC,ZEN LEAF NAUGATUCK,AMHF.0008262,585 South Main Street,Naugatuck,06770,https://zenleafdispensaries.com/locations/waterbury/,POINT (-73.04809 41.47845)
Hybrid Retailer,TRULIEVE BRISTOL INC,TRULIEVE BRISTOL INC,AMHF.0008263,820 FARMINGTON AVE,BRISTOL,06010-3921,https://www.trulieve.com/dispensaries/bristol-ct,POINT (-72.91603 41.69263)
Hybrid Retailer,THAMES VALLEY RELIEF,THE BOTANIST - MONTVILLE,AMHF.0008251,887 NORWICH NEW LONDON TPKE,UNCASVILLE,06382-1917,https://www.shopbotanist.com/locations/montville/,POINT (-72.10596 41.44989)
Hybrid Retailer,"PRIME WELLNESS OF CONNECTICUT, LLC",THE BOTANIST,AMHF.0008283,234 TALCOTTVILLE RD,VERNON ROCKVILLE,06066-4617,https://www.primewellnessofct.com/,POINT (-72.49135 41.8358)
Hybrid Retailer,D&B WELLNESS LLC,THE BOTANIST - DANBURY,AMHF.0008268,105 MILL PLAIN RD,DANBURY,06811-5198,https://www.shopbotanist.com/locations/danbury/hours-and-info/,POINT (-73.51942 41.39298)
Hybrid Retailer,"BLUEPOINT APOTHECARY, LLC",RISE,AMHF.0008250,471 E MAIN ST,BRANFORD,06405-2961,https://www.bluepointwellnessct.com/,POINT (-72.77273 41.29794)
Hybrid Retailer,CURALEAF HARTFORD INC,CURALEAF HARTFORD INC,AMHF.0008265,92 WESTON ST,HARTFORD,06120-1510,https://ct.curaleaf.com/shop/curaleaf-ct-hartford,POINT (-72.66265 41.78681)
Hybrid Retailer,CONNECTICUT PHARMACEUTICAL SOLUTIONS LLC,ZEN LEAF,AMHF.0008258,2903 BERLIN TPKE,NEWINGTON,06111-4115,,POINT (-72.71741 41.67071)
Hybrid Retailer,CONNECTICUT PHARMACEUTICAL SOLUTIONS LLC,ZEN LEAF,AMHF.0008257,606 West Main Street,Norwich,06360,,POINT (-72.10071 41.51609)
Hybrid Retailer,Nautilus Botanicals EJV1 LLC,Nautilus Botanicals EJV1 LLC,AMHF.0008282,63 Amity Rd,New Haven,06515,,POINT (-72.97786 41.33657)
Hybrid Retailer,SWEETSPOT WEST HARTFORD LLC,SWEETSPOT WEST HARTFORD LLC,AMHF.0008269,2 Park Road,West Hartford,06119,,POINT (-72.71498 41.75648)
Hybrid Retailer,FFD NEWINGTON LLC,FINE FETTLE DISPENSARY - NEWINGTON,AMHF.0008249,2280 BERLIN TPKE,NEWINGTON,06111-3202,https://www.finefettle.com/,POINT (-72.70531 41.69038)
Hybrid Retailer,FFD CENTRAL LLC,FINE FETTLE DISPENSARY,AMHF.0008248,1548 W MAIN ST,WILLIMANTIC,06226-1142,https://www.finefettle.com/,POINT (-72.23605 41.71904)
Hybrid Retailer,WILLOW BROOK WELLNESS LLC,ZEN LEAF MERIDEN,AMHF.0008259,55 Nott Highway,Ashford,06278,https://zenleafdispensaries.com,POINT (-72.18238 41.85928)
Hybrid Retailer,WILLOW BROOK WELLNESS LLC,ZEN LEAF MERIDEN,AMHF.0008260,98 ELM ST # C,ENFIELD,06082-3732,https://zenleafdispensaries.com,POINT (-72.5826 41.99727)
Hybrid Retailer,WILLOW BROOK WELLNESS LLC,ZEN LEAF MERIDEN,AMHF.0008254,1371 E MAIN ST,MERIDEN,06450-4869,https://zenleafdispensaries.com,POINT (-72.75697 41.52552)
Hybrid Retailer,AFFINITY HEALTH & WELLNESS INC,AFFINITY DISPENSARY,AMHF.0008252,1351 WHALLEY AVE,NEW HAVEN,06515-1149,https://affinityct.com/,POINT (-72.97428 41.33251)
Adult-Use Cannabis Only,CHILLAX LLC,THE LIV,ACRE.0004289,97 Providence Pike,Putnam,06260,,POINT (-71.87378 41.92515)
Adult-Use Cannabis Only,SLAP ASH RETAIL II LLC,HIGH PROFILE CANNABIS SHOP,ACRE.0002642,195 Albany Turnpike,Canton,06019,,POINT (-72.89538 41.82526)
Adult-Use Cannabis Only,"FFDC EJV, LLC","FFDC EJV, LLC",ACRE.0015676,191 Main Street,Norwalk,06851,,POINT (-73.42196 41.12645)
Adult-Use Cannabis Only,Nutmeg Hamden JV LLC,Nutmeg Hamden JV LLC,ACRE.0015653,3825 WHITNEY AVE,HAMDEN,06518-1519,,POINT (-72.90748 41.43279)
Adult-Use Cannabis Only,NUTMEG NORTHWEST JV LLC,HIGHER COLLECTIVE,ACRE.0015662,53 McDermott Avenue,Torrington,06790,,POINT (-73.12478 41.81382)
Adult-Use Cannabis Only,NUTMEG NEW LONDON JV LLC,HIGHER COLLECTIVE,ACRE.0015657,595 Bank Street,New London,06320,,POINT (-72.10283 41.34984)
Adult-Use Cannabis Only,UMN EQUITY JOINT VENTURE LLC,UMN EQUITY JOINT VENTURE LLC,ACRE.0014925,157 Boston Post Rd,North Windham,06256,,POINT (-72.1878 41.72977)
Adult-Use Cannabis Only,Budr Holding 3 LLC,Budr Holding 3 LLC,ACRE.0015669,9 Fieldstone Commons,Tolland,06084,,POINT (-72.3584 41.86074)
Adult-Use Cannabis Only,"Insa CT Retail I, LLC","Insa CT Retail I, LLC",ACRE.0015682,167 Brainard Rd,Hartford,06114,,POINT (-72.65979 41.73543)
Adult-Use Cannabis Only,"FFD BLUE EJV, LLC","FFD BLUE EJV, LLC",ACRE.0015680,85 Turnpike Drive,Waterbury,06762,,POINT (-73.09116 41.56473)
Adult-Use Cannabis Only,CONNECTIBUDS EJV 2 LLC,HI PEOPLE CANNABIS MARKET,ACRE.0015686,90 Pershing Drive,Derby,06418,,POINT (-73.0846 41.3278)
Adult-Use Cannabis Only,FFDC EJV II LLC,FINE FETTLE - WEST HARTFORD,ACRE.0015700,1232 Farmington Ave,West Hartford,06107,,POINT (-72.76609 41.75538)
Adult-Use Cannabis Only,"Insa CT Retail II, LLC","Insa CT Retail II, LLC",ACRE.0015678,222 Sargent Dr,New Haven,06511,,POINT (-72.92055 41.29319)
Adult-Use Cannabis Only,BUDR HOLDING 2 LLC,BUDR CANNABIS,ACRE.0015670,1037 BOULEVARD,WEST HARTFORD,06119,,POINT (-72.71582 41.76005)
Adult-Use Cannabis Only,SFC CT LLC,VENU FLOWER COLLECTIVE,ACRE.0015659,895 Washington Street,Middletown,06457,,POINT (-72.68243 41.5542)
Adult-Use Cannabis Only,BUDR HARTFORD HOLDING LLC,BUDR HARTFORD HOLDING LLC,ACRE.0015644,108 Federal Road,Danbury,06810,,POINT (-73.42002 41.42019)
Adult-Use Cannabis Only,NUTMEG SOUTHWEST JV LLC,HIGHER COLLECTIVE,ACRE.0015654,3369 FAIRFIELD AVE,BRIDGEPORT,06605-3224,,POINT (-73.23516 41.15473)
Adult-Use Cannabis Only,NUTMEG KILLINGLY JV LLC,HIGHER COLLECTIVE,ACRE.0015655,1078 N MAIN ST STE 6,KILLINGLY,06241-2127,,POINT (-71.87617 41.83906)
Adult-Use Cannabis Only,NUTMEG WILLINGTON JV LLC,HIGHER COLLECTIVE,ACRE.0015656,11 Phelps Way,Willington,06279,,POINT (-72.30282 41.87959)
Adult-Use Cannabis Only,ACREAGE CONNECTICUT RETAIL JV LLC,LIT NEW HAVEN,ACRE.0015697,169 East St,New Haven,06511,,POINT (-72.91032 41.30293)
Adult-Use Cannabis Only,FFDW EJV LLC,FFDW EJV LLC,ACRE.0015647,91 HALE RD,MANCHESTER,06042-1769,,POINT (-72.52914 41.81182)
Adult-Use Cannabis Only,"FFDN EJV, LLC","FFDN EJV, LLC",ACRE.0015677,233 Boston Post Road,Old Saybrook,06475,,POINT (-72.36778 41.30909)
Adult-Use Cannabis Only,"Hydra East, LLC","Hydra East, LLC",ACRE.0014886,9 Hazard Ave,Enfield,06082,,POINT (-72.58334 41.99034)
Adult-Use Cannabis Only,"HWY 95, LLC.",THE HARVEST CORNER,ACRE.0015660,493 Westchester Rd.,Colchester,06415,,POINT (-72.41194 41.54681)
Adult-Use Cannabis Only,SHANGRI-LA CT INC,SHANGRI-LA CT INC,ACRE.0003242,359 NEW BRITAIN AVE UNIT 1,PLAINVILLE,06062-2013,,POINT (-72.8378 41.67394)
Adult-Use Cannabis Only,SHANGRI-LA CT INC,SHANGRI-LA CT INC,ACRE.0003185,53 INTERSTATE LN,WATERBURY,06705-2658,,POINT (-72.99759 41.53543)
Adult-Use Cannabis Only,SHANGRI-LA CT INC,SHANGRI-LA CT INC,ACRE.0004665,430 Main Avenue,Norwalk,06851,,POINT (-73.42594 41.14778)
Adult-Use Cannabis Only,SHANGRI-LA DISPENSARY,SHANGRI-LA CT INC,ACRE.0011824,75 connecticut ave,Norwalk,06854,,POINT (-73.4253 41.10647)
Adult-Use Cannabis Only,SLAP ASH RETAIL I LLC,HIGH PROFILE CANNABIS SHOP,ACRE.0013138,2607 Whitney Ave,Hamden,06518,,POINT (-72.89815 41.39134)
Adult-Use Cannabis Only,"GREEN ACRES CT ONE, LLC",420 WAREHOUSE,ACRE.0015689,1 Hartford Square,New Britain,06052,,POINT (-72.81087 41.66464)
Adult-Use Cannabis Only,NUTMEG HARTFORD JV LLC,HIGHER COLLECTIVE,ACRE.0015652,1396 Park Street,Hartford,06106,,POINT (-72.70144 41.75819)
